[{"OBJECT_NAME":"STARLINK-35033","OBJECT_ID":"2025-195L","EPOCH":"2026-03-09T17:26:14.081568","MEAN_MOTION":15.30198377,"ECCENTRICITY":0.00010424,"INCLINATION":53.1592,"RA_OF_ASC_NODE":257.6971,"ARG_OF_PERICENTER":113.8761,"MEAN_ANOMALY":246.2349,"EPHEMERIS_TYPE":0,"CLASSIFICATION_TYPE":"U","NORAD_CAT_ID":65468,"ELEMENT_SET_NO":999,"REV_AT_EPOCH":3000,"BSTAR":0.00045136319,"MEAN_MOTION_DOT":0.00013032,"MEAN_MOTION_DDOT":0},{"OBJECT_NAME":"COSMOS 2251 DEB","OBJECT_ID":"1993-036BTX","EPOCH":"2026-02-28T17:34:44.973408","MEAN_MOTION":15.25753352,"ECCENTRICITY":0.00216382,"INCLINATION":73.9681,"RA_OF_ASC_NODE":229.3494,"ARG_OF_PERICENTER":13.6287,"MEAN_ANOMALY":346.5492,"EPHEMERIS_TYPE":0,"CLASSIFICATION_TYPE":"U","NORAD_CAT_ID":38487,"ELEMENT_SET_NO":999,"REV_AT_EPOCH":67986,"BSTAR":0.0024802785,"MEAN_MOTION_DOT":0.00064261,"MEAN_MOTION_DDOT":0}]
